{
  "type": "FeatureCollection",
  "features": [
    {
      "type": "Feature",
      "properties": {
        "norad_id": 36045,
        "name": "COSMOS 2251 DEB",
        "group": "cosmos-2251-debris",
        "lat": 63.112717564955425,
        "lon": 111.75114345099779,
        "alt_km": 625.2773312467443,
        "timestamp": "2025-12-03T19:33:07.374302+00:00",
        "meta_object_name": "COSMOS 2251 DEB",
        "meta_object_id": "1993-036AXG",
        "meta_epoch": "2025-12-01T23:07:36.106176",
        "meta_mean_motion": 14.69377741,
        "meta_eccentricity": 0.00488719,
        "meta_inclination": 73.7639,
        "meta_ra_of_asc_node": 80.3157,
        "meta_arg_of_pericenter": 97.908,
        "meta_mean_anomaly": 262.764,
        "meta_ephemeris_type": 0,
        "meta_classification_type": "U",
        "meta_norad_cat_id": 36045,
        "meta_element_set_no": 999,
        "meta_rev_at_epoch": 8230,
        "meta_bstar": 0.0029815468,
        "meta_mean_motion_dot": 0.0001797,
        "meta_mean_motion_ddot": 0,
        "tle_line1": "1 36045U 93036AXG 25335.96361234  .00017970  00000+0  29815-2 0  9991",
        "tle_line2": "2 36045  73.7639  80.3157 0048871  97.9080 262.7640 14.69377741 82309"
      },
      "geometry": {
        "type": "Point",
        "coordinates": [
          111.75114345099779,
          63.112717564955425
        ]
      }
    },
    {
      "type": "Feature",
      "properties": {
        "norad_id": 36046,
        "name": "COSMOS 2251 DEB",
        "group": "cosmos-2251-debris",
        "lat": -73.7868383826614,
        "lon": -146.60595247494373,
        "alt_km": 721.8497184321395,
        "timestamp": "2025-12-03T19:33:07.374312+00:00",
        "meta_object_name": "COSMOS 2251 DEB",
        "meta_object_id": "1993-036AXH",
        "meta_epoch": "2025-12-01T14:24:58.053024",
        "meta_mean_motion": 14.65147038,
        "meta_eccentricity": 0.00552553,
        "meta_inclination": 74.0167,
        "meta_ra_of_asc_node": 297.9586,
        "meta_arg_of_pericenter": 87.1353,
        "meta_mean_anomaly": 32.6466,
        "meta_ephemeris_type": 0,
        "meta_classification_type": "U",
        "meta_norad_cat_id": 36046,
        "meta_element_set_no": 999,
        "meta_rev_at_epoch": 63840,
        "meta_bstar": 0.0006286755,
        "meta_mean_motion_dot": 3.426e-05,
        "meta_mean_motion_ddot": 0,
        "tle_line1": "1 36046U 93036AXH 25335.60067191  .00003426  00000+0  62868-3 0  9995",
        "tle_line2": "2 36046  74.0167 297.9586 0055255  87.1353  32.6466 14.65147038638408"
      },
      "geometry": {
        "type": "Point",
        "coordinates": [
          -146.60595247494373,
          -73.7868383826614
        ]
      }
    },
    {
      "type": "Feature",
      "properties": {
        "norad_id": 36047,
        "name": "COSMOS 2251 DEB",
        "group": "cosmos-2251-debris",
        "lat": -49.61662073766686,
        "lon": -27.489681032874046,
        "alt_km": 585.8180523108686,
        "timestamp": "2025-12-03T19:33:07.374322+00:00",
        "meta_object_name": "COSMOS 2251 DEB",
        "meta_object_id": "1993-036AXJ",
        "meta_epoch": "2025-12-01T08:22:30.253728",
        "meta_mean_motion": 14.95238744,
        "meta_eccentricity": 0.00076085,
        "meta_inclination": 74.0357,
        "meta_ra_of_asc_node": 357.1503,
        "meta_arg_of_pericenter": 22.6226,
        "meta_mean_anomaly": 337.5293,
        "meta_ephemeris_type": 0,
        "meta_classification_type": "U",
        "meta_norad_cat_id": 36047,
        "meta_element_set_no": 999,
        "meta_rev_at_epoch": 65769,
        "meta_bstar": 0.0028215631,
        "meta_mean_motion_dot": 0.00031167,
        "meta_mean_motion_ddot": 0,
        "tle_line1": "1 36047U 93036AXJ 25335.34896127  .00031167  00000+0  28216-2 0  9997",
        "tle_line2": "2 36047  74.0357 357.1503 0007608  22.6226 337.5293 14.95238744657695"
      },
      "geometry": {
        "type": "Point",
        "coordinates": [
          -27.489681032874046,
          -49.61662073766686
        ]
      }
    },
    {
      "type": "Feature",
      "properties": {
        "norad_id": 36048,
        "name": "COSMOS 2251 DEB",
        "group": "cosmos-2251-debris",
        "lat": -62.6374797374393,
        "lon": -77.83030943002322,
        "alt_km": 767.6802158867413,
        "timestamp": "2025-12-03T19:33:07.374332+00:00",
        "meta_object_name": "COSMOS 2251 DEB",
        "meta_object_id": "1993-036AXK",
        "meta_epoch": "2025-12-02T05:33:28.179360",
        "meta_mean_motion": 14.37820716,
        "meta_eccentricity": 0.0026144,
        "meta_inclination": 74.0564,
        "meta_ra_of_asc_node": 318.6098,
        "meta_arg_of_pericenter": 10.9785,
        "meta_mean_anomaly": 10.8514,
        "meta_ephemeris_type": 0,
        "meta_classification_type": "U",
        "meta_norad_cat_id": 36048,
        "meta_element_set_no": 999,
        "meta_rev_at_epoch": 85351,
        "meta_bstar": 0.00037177,
        "meta_mean_motion_dot": 1.099e-05,
        "meta_mean_motion_ddot": 0,
        "tle_line1": "1 36048U 93036AXK 25336.23157615  .00001099  00000+0  37177-3 0  9997",
        "tle_line2": "2 36048  74.0564 318.6098 0026144  10.9785  10.8514 14.37820716853511"
      },
      "geometry": {
        "type": "Point",
        "coordinates": [
          -77.83030943002322,
          -62.6374797374393
        ]
      }
    },
    {
      "type": "Feature",
      "properties": {
        "norad_id": 36049,
        "name": "COSMOS 2251 DEB",
        "group": "cosmos-2251-debris",
        "lat": -17.43515033351819,
        "lon": 131.11421521168387,
        "alt_km": 695.7602858845366,
        "timestamp": "2025-12-03T19:33:07.374342+00:00",
        "meta_object_name": "COSMOS 2251 DEB",
        "meta_object_id": "1993-036AXL",
        "meta_epoch": "2025-12-02T10:47:16.230624",
        "meta_mean_motion": 14.61903141,
        "meta_eccentricity": 0.00113733,
        "meta_inclination": 74.0292,
        "meta_ra_of_asc_node": 138.8873,
        "meta_arg_of_pericenter": 223.356,
        "meta_mean_anomaly": 136.6713,
        "meta_ephemeris_type": 0,
        "meta_classification_type": "U",
        "meta_norad_cat_id": 36049,
        "meta_element_set_no": 999,
        "meta_rev_at_epoch": 85214,
        "meta_bstar": 0.0017572589,
        "meta_mean_motion_dot": 8.782e-05,
        "meta_mean_motion_ddot": 0,
        "tle_line1": "1 36049U 93036AXL 25336.44949341  .00008782  00000+0  17573-2 0  9999",
        "tle_line2": "2 36049  74.0292 138.8873 0011373 223.3560 136.6713 14.61903141852149"
      },
      "geometry": {
        "type": "Point",
        "coordinates": [
          131.11421521168387,
          -17.43515033351819
        ]
      }
    },
    {
      "type": "Feature",
      "properties": {
        "norad_id": 36050,
        "name": "COSMOS 2251 DEB",
        "group": "cosmos-2251-debris",
        "lat": -59.77468272836016,
        "lon": 61.63509228192389,
        "alt_km": 531.0649518677001,
        "timestamp": "2025-12-03T19:33:07.374375+00:00",
        "meta_object_name": "COSMOS 2251 DEB",
        "meta_object_id": "1993-036AXM",
        "meta_epoch": "2025-12-03T08:51:43.556832",
        "meta_mean_motion": 15.00813844,
        "meta_eccentricity": 0.008908,
        "meta_inclination": 74.0318,
        "meta_ra_of_asc_node": 213.1033,
        "meta_arg_of_pericenter": 294.9563,
        "meta_mean_anomaly": 64.2389,
        "meta_ephemeris_type": 0,
        "meta_classification_type": "U",
        "meta_norad_cat_id": 36050,
        "meta_element_set_no": 999,
        "meta_rev_at_epoch": 66894,
        "meta_bstar": 0.00068061,
        "meta_mean_motion_dot": 9.378e-05,
        "meta_mean_motion_ddot": 0,
        "tle_line1": "1 36050U 93036AXM 25337.36925413  .00009378  00000+0  68061-3 0  9998",
        "tle_line2": "2 36050  74.0318 213.1033 0089080 294.9563  64.2389 15.00813844668944"
      },
      "geometry": {
        "type": "Point",
        "coordinates": [
          61.63509228192389,
          -59.77468272836016
        ]
      }
    },
    {
      "type": "Feature",
      "properties": {
        "norad_id": 36053,
        "name": "COSMOS 2251 DEB",
        "group": "cosmos-2251-debris",
        "lat": 57.044055184728784,
        "lon": -36.69759425270989,
        "alt_km": 673.6971159755149,
        "timestamp": "2025-12-03T19:33:07.374386+00:00",
        "meta_object_name": "COSMOS 2251 DEB",
        "meta_object_id": "1993-036AXQ",
        "meta_epoch": "2025-12-01T06:02:04.873920",
        "meta_mean_motion": 14.56926822,
        "meta_eccentricity": 0.0033176,
        "meta_inclination": 73.8721,
        "meta_ra_of_asc_node": 174.7239,
        "meta_arg_of_pericenter": 127.7081,
        "meta_mean_anomaly": 232.7098,
        "meta_ephemeris_type": 0,
        "meta_classification_type": "U",
        "meta_norad_cat_id": 36053,
        "meta_element_set_no": 999,
        "meta_rev_at_epoch": 87277,
        "meta_bstar": 0.0017117,
        "meta_mean_motion_dot": 7.72e-05,
        "meta_mean_motion_ddot": 0,
        "tle_line1": "1 36053U 93036AXQ 25335.25144530  .00007720  00000+0  17117-2 0  9994",
        "tle_line2": "2 36053  73.8721 174.7239 0033176 127.7081 232.7098 14.56926822872773"
      },
      "geometry": {
        "type": "Point",
        "coordinates": [
          -36.69759425270989,
          57.044055184728784
        ]
      }
    }
  ]
}